{
  "norad_id": 50489,
  "name": "ONEWEB-0412",
  "history": [
    {
      "epoch": "2026-03-28T18:01:46.810272Z",
      "apogee_km": 1191.078857951551,
      "perigee_km": 1188.3999810565747,
      "latitude_deg": 1.5839228614997818e-05,
      "longitude_deg": -105.1690303132911,
      "height_km": 1192.6066393611404,
      "semi_major_axis_km": 7567.876419504063,
      "eccentricity": 0.00017699,
      "inclination_deg": 87.9238,
      "raan_deg": 351.4432,
      "arg_perigee_deg": 88.7185,
      "mean_anomaly_deg": 271.415,
      "mean_motion_rev_day": 13.18686969
    },
    {
      "epoch": "2026-03-29T04:57:21.106656Z",
      "apogee_km": 1191.082836469367,
      "perigee_km": 1188.39018707388,
      "latitude_deg": 1.045283149025726e-05,
      "longitude_deg": 90.39904508050284,
      "height_km": 1192.6067252989662,
      "semi_major_axis_km": 7567.873511771623,
      "eccentricity": 0.0001779,
      "inclination_deg": 87.9237,
      "raan_deg": 351.3529,
      "arg_perigee_deg": 88.8531,
      "mean_anomaly_deg": 271.2805,
      "mean_motion_rev_day": 13.18687729
    }
  ]
}